{
  "type": "FeatureCollection",
  "features": [
    {
      "type": "Feature",
      "properties": {
        "norad_id": 35901,
        "name": "COSMOS 2251 DEB",
        "group": "cosmos-2251-debris",
        "lat": 46.128624878829335,
        "lon": -157.360465548277,
        "alt_km": 546.3610711782139,
        "timestamp": "2025-12-04T09:47:37.916606+00:00",
        "meta_object_name": "COSMOS 2251 DEB",
        "meta_object_id": "1993-036AUQ",
        "meta_epoch": "2025-12-03T12:47:12.154848",
        "meta_mean_motion": 15.05661213,
        "meta_eccentricity": 0.00053546,
        "meta_inclination": 74.0104,
        "meta_ra_of_asc_node": 41.7901,
        "meta_arg_of_pericenter": 18.2777,
        "meta_mean_anomaly": 50.4062,
        "meta_ephemeris_type": 0,
        "meta_classification_type": "U",
        "meta_norad_cat_id": 35901,
        "meta_element_set_no": 999,
        "meta_rev_at_epoch": 85988,
        "meta_bstar": 0.0045461662,
        "meta_mean_motion_dot": 0.00066284,
        "meta_mean_motion_ddot": 0,
        "tle_line1": "1 35901U 93036AUQ 25337.53277957  .00066284  00000+0  45462-2 0  9992",
        "tle_line2": "2 35901  74.0104  41.7901 0005354  18.2777  50.4062 15.05661213859882"
      },
      "geometry": {
        "type": "Point",
        "coordinates": [
          -157.360465548277,
          46.128624878829335
        ]
      }
    },
    {
      "type": "Feature",
      "properties": {
        "norad_id": 35902,
        "name": "COSMOS 2251 DEB",
        "group": "cosmos-2251-debris",
        "lat": -70.2439870352772,
        "lon": -163.40220502284882,
        "alt_km": 801.2370375137434,
        "timestamp": "2025-12-04T09:47:37.916616+00:00",
        "meta_object_name": "COSMOS 2251 DEB",
        "meta_object_id": "1993-036AUR",
        "meta_epoch": "2025-12-01T03:04:00.207552",
        "meta_mean_motion": 14.26791124,
        "meta_eccentricity": 0.01016301,
        "meta_inclination": 73.9836,
        "meta_ra_of_asc_node": 255.6555,
        "meta_arg_of_pericenter": 12.6385,
        "meta_mean_anomaly": 347.7274,
        "meta_ephemeris_type": 0,
        "meta_classification_type": "U",
        "meta_norad_cat_id": 35902,
        "meta_element_set_no": 999,
        "meta_rev_at_epoch": 60964,
        "meta_bstar": 0.0014097892,
        "meta_mean_motion_dot": 3.584e-05,
        "meta_mean_motion_ddot": 0,
        "tle_line1": "1 35902U 93036AUR 25335.12778018  .00003584  00000+0  14098-2 0  9995",
        "tle_line2": "2 35902  73.9836 255.6555 0101630  12.6385 347.7274 14.26791124609642"
      },
      "geometry": {
        "type": "Point",
        "coordinates": [
          -163.40220502284882,
          -70.2439870352772
        ]
      }
    },
    {
      "type": "Feature",
      "properties": {
        "norad_id": 35905,
        "name": "COSMOS 2251 DEB",
        "group": "cosmos-2251-debris",
        "lat": -52.331427407811184,
        "lon": 69.49409417132372,
        "alt_km": 559.6630367557191,
        "timestamp": "2025-12-04T09:47:37.916626+00:00",
        "meta_object_name": "COSMOS 2251 DEB",
        "meta_object_id": "1993-036AUU",
        "meta_epoch": "2025-12-03T10:18:42.783840",
        "meta_mean_motion": 14.98799352,
        "meta_eccentricity": 0.00909914,
        "meta_inclination": 74.0329,
        "meta_ra_of_asc_node": 229.7091,
        "meta_arg_of_pericenter": 312.0249,
        "meta_mean_anomaly": 47.3216,
        "meta_ephemeris_type": 0,
        "meta_classification_type": "U",
        "meta_norad_cat_id": 35905,
        "meta_element_set_no": 999,
        "meta_rev_at_epoch": 88443,
        "meta_bstar": 0.00080980013,
        "meta_mean_motion_dot": 0.00010615,
        "meta_mean_motion_ddot": 0,
        "tle_line1": "1 35905U 93036AUU 25337.42966185  .00010615  00000+0  80980-3 0  9994",
        "tle_line2": "2 35905  74.0329 229.7091 0090991 312.0249  47.3216 14.98799352884435"
      },
      "geometry": {
        "type": "Point",
        "coordinates": [
          69.49409417132372,
          -52.331427407811184
        ]
      }
    },
    {
      "type": "Feature",
      "properties": {
        "norad_id": 35959,
        "name": "COSMOS 2251 DEB",
        "group": "cosmos-2251-debris",
        "lat": 28.36091483668949,
        "lon": 138.4263007485044,
        "alt_km": 778.8778889296573,
        "timestamp": "2025-12-04T09:47:37.916637+00:00",
        "meta_object_name": "COSMOS 2251 DEB",
        "meta_object_id": "1993-036AUZ",
        "meta_epoch": "2025-12-03T09:39:32.961312",
        "meta_mean_motion": 14.34124856,
        "meta_eccentricity": 0.00212071,
        "meta_inclination": 74.0321,
        "meta_ra_of_asc_node": 329.1579,
        "meta_arg_of_pericenter": 52.6115,
        "meta_mean_anomaly": 307.6963,
        "meta_ephemeris_type": 0,
        "meta_classification_type": "U",
        "meta_norad_cat_id": 35959,
        "meta_element_set_no": 999,
        "meta_rev_at_epoch": 84794,
        "meta_bstar": 0.00017921451,
        "meta_mean_motion_dot": 4.77e-06,
        "meta_mean_motion_ddot": 0,
        "tle_line1": "1 35959U 93036AUZ 25337.40246483  .00000477  00000+0  17921-3 0  9993",
        "tle_line2": "2 35959  74.0321 329.1579 0021207  52.6115 307.6963 14.34124856847942"
      },
      "geometry": {
        "type": "Point",
        "coordinates": [
          138.4263007485044,
          28.36091483668949
        ]
      }
    },
    {
      "type": "Feature",
      "properties": {
        "norad_id": 35961,
        "name": "COSMOS 2251 DEB",
        "group": "cosmos-2251-debris",
        "lat": -43.14155098355832,
        "lon": 54.51039853688366,
        "alt_km": 834.1843683125762,
        "timestamp": "2025-12-04T09:47:37.916646+00:00",
        "meta_object_name": "COSMOS 2251 DEB",
        "meta_object_id": "1993-036AVB",
        "meta_epoch": "2025-11-29T09:08:47.173056",
        "meta_mean_motion": 14.05319505,
        "meta_eccentricity": 0.01924432,
        "meta_inclination": 73.9254,
        "meta_ra_of_asc_node": 227.671,
        "meta_arg_of_pericenter": 163.9834,
        "meta_mean_anomaly": 196.7506,
        "meta_ephemeris_type": 0,
        "meta_classification_type": "U",
        "meta_norad_cat_id": 35961,
        "meta_element_set_no": 999,
        "meta_rev_at_epoch": 62494,
        "meta_bstar": 0.00062484461,
        "meta_mean_motion_dot": 1.171e-05,
        "meta_mean_motion_ddot": 0,
        "tle_line1": "1 35961U 93036AVB 25333.38110154  .00001171  00000+0  62484-3 0  9990",
        "tle_line2": "2 35961  73.9254 227.6710 0192443 163.9834 196.7506 14.05319505624940"
      },
      "geometry": {
        "type": "Point",
        "coordinates": [
          54.51039853688366,
          -43.14155098355832
        ]
      }
    },
    {
      "type": "Feature",
      "properties": {
        "norad_id": 35979,
        "name": "COSMOS 2251 DEB",
        "group": "cosmos-2251-debris",
        "lat": -17.96816780493888,
        "lon": 80.01633654739155,
        "alt_km": 692.1354314434111,
        "timestamp": "2025-12-04T09:47:37.916657+00:00",
        "meta_object_name": "COSMOS 2251 DEB",
        "meta_object_id": "1993-036AVV",
        "meta_epoch": "2025-12-03T12:31:35.824224",
        "meta_mean_motion": 14.74433197,
        "meta_eccentricity": 0.00586948,
        "meta_inclination": 74.0111,
        "meta_ra_of_asc_node": 256.413,
        "meta_arg_of_pericenter": 30.7262,
        "meta_mean_anomaly": 146.1139,
        "meta_ephemeris_type": 0,
        "meta_classification_type": "U",
        "meta_norad_cat_id": 35979,
        "meta_element_set_no": 999,
        "meta_rev_at_epoch": 88497,
        "meta_bstar": 0.0015648787,
        "meta_mean_motion_dot": 0.00010665,
        "meta_mean_motion_ddot": 0,
        "tle_line1": "1 35979U 93036AVV 25337.52194241  .00010665  00000+0  15649-2 0  9996",
        "tle_line2": "2 35979  74.0111 256.4130 0058694  30.7262 146.1139 14.74433197884976"
      },
      "geometry": {
        "type": "Point",
        "coordinates": [
          80.01633654739155,
          -17.96816780493888
        ]
      }
    },
    {
      "type": "Feature",
      "properties": {
        "norad_id": 35980,
        "name": "COSMOS 2251 DEB",
        "group": "cosmos-2251-debris",
        "lat": 3.468897400245471,
        "lon": -42.32055918360945,
        "alt_km": 703.2630337753535,
        "timestamp": "2025-12-04T09:47:37.916667+00:00",
        "meta_object_name": "COSMOS 2251 DEB",
        "meta_object_id": "1993-036AVW",
        "meta_epoch": "2025-12-02T19:08:08.015136",
        "meta_mean_motion": 14.59062146,
        "meta_eccentricity": 0.00537712,
        "meta_inclination": 73.91,
        "meta_ra_of_asc_node": 141.7735,
        "meta_arg_of_pericenter": 277.5645,
        "meta_mean_anomaly": 81.9413,
        "meta_ephemeris_type": 0,
        "meta_classification_type": "U",
        "meta_norad_cat_id": 35980,
        "meta_element_set_no": 999,
        "meta_rev_at_epoch": 61341,
        "meta_bstar": 0.002036555,
        "meta_mean_motion_dot": 9.752e-05,
        "meta_mean_motion_ddot": 0,
        "tle_line1": "1 35980U 93036AVW 25336.79731499  .00009752  00000+0  20366-2 0  9995",
        "tle_line2": "2 35980  73.9100 141.7735 0053771 277.5645  81.9413 14.59062146613413"
      },
      "geometry": {
        "type": "Point",
        "coordinates": [
          -42.32055918360945,
          3.468897400245471
        ]
      }
    }
  ]
}